{
  "norad_id": 64140,
  "name": "STARLINK-34149",
  "history": [
    {
      "epoch": "2026-03-28T21:53:09.479328Z",
      "apogee_km": 484.3647232179828,
      "perigee_km": 481.6081982563974,
      "latitude_deg": 3.5388655821960784e-06,
      "longitude_deg": 174.65814593773052,
      "height_km": 482.9187785435491,
      "semi_major_axis_km": 6861.12346073719,
      "eccentricity": 0.00020088,
      "inclination_deg": 43.0032,
      "raan_deg": 329.2732,
      "arg_perigee_deg": 263.5506,
      "mean_anomaly_deg": 96.5117,
      "mean_motion_rev_day": 15.27600918
    },
    {
      "epoch": "2026-03-29T01:01:28.136064Z",
      "apogee_km": 484.227247756231,
      "perigee_km": 481.7490093597953,
      "latitude_deg": 8.95560382310298e-06,
      "longitude_deg": 126.71092103958387,
      "height_km": 482.89717820620734,
      "semi_major_axis_km": 6861.125128558013,
      "eccentricity": 0.0001806,
      "inclination_deg": 43.0011,
      "raan_deg": 328.5326,
      "arg_perigee_deg": 263.8881,
      "mean_anomaly_deg": 96.1765,
      "mean_motion_rev_day": 15.27600361
    },
    {
      "epoch": "2026-03-30T00:33:49.129920Z",
      "apogee_km": 484.4204418867139,
      "perigee_km": 481.6402968686425,
      "latitude_deg": -5.7275252962132215e-05,
      "longitude_deg": 127.11815736976207,
      "height_km": 482.6543998644213,
      "semi_major_axis_km": 6861.167369377678,
      "eccentricity": 0.0002026,
      "inclination_deg": 43.0008,
      "raan_deg": 322.9941,
      "arg_perigee_deg": 276.3303,
      "mean_anomaly_deg": 83.7317,
      "mean_motion_rev_day": 15.27586254
    },
    {
      "epoch": "2026-03-30T00:33:49.130784Z",
      "apogee_km": 484.4202360516929,
      "perigee_km": 481.6405027036635,
      "latitude_deg": -5.96198544350006e-05,
      "longitude_deg": 127.11825125959011,
      "height_km": 482.65442255675316,
      "semi_major_axis_km": 6861.167369377678,
      "eccentricity": 0.00020257,
      "inclination_deg": 43.0008,
      "raan_deg": 322.9942,
      "arg_perigee_deg": 276.3303,
      "mean_anomaly_deg": 83.7317,
      "mean_motion_rev_day": 15.27586254
    },
    {
      "epoch": "2026-03-30T08:24:36.478080Z",
      "apogee_km": 483.9809438686707,
      "perigee_km": 482.11127147183197,
      "latitude_deg": 1.0082335077127819e-05,
      "longitude_deg": 7.252601864877941,
      "height_km": 482.5793041826773,
      "semi_major_axis_km": 6861.183107670251,
      "eccentricity": 0.00013625,
      "inclination_deg": 43.0023,
      "raan_deg": 321.148,
      "arg_perigee_deg": 285.1124,
      "mean_anomaly_deg": 74.9577,
      "mean_motion_rev_day": 15.27580998
    },
    {
      "epoch": "2026-03-30T22:32:01.253760Z",
      "apogee_km": 484.1003183701332,
      "perigee_km": 481.9699244264393,
      "latitude_deg": -3.1405577105425235e-06,
      "longitude_deg": 151.494822905831,
      "height_km": 482.67991339023877,
      "semi_major_axis_km": 6861.172121398286,
      "eccentricity": 0.00015525,
      "inclination_deg": 43.0003,
      "raan_deg": 317.8235,
      "arg_perigee_deg": 277.1226,
      "mean_anomaly_deg": 82.9449,
      "mean_motion_rev_day": 15.27584667
    },
    {
      "epoch": "2026-03-31T07:56:57.668064Z",
      "apogee_km": 483.97360409414523,
      "perigee_km": 482.10873586754406,
      "latitude_deg": 1.684786798541695e-05,
      "longitude_deg": 7.657597304588869,
      "height_km": 482.71811684868527,
      "semi_major_axis_km": 6861.178169980844,
      "eccentricity": 0.0001359,
      "inclination_deg": 43.0008,
      "raan_deg": 315.608,
      "arg_perigee_deg": 276.1452,
      "mean_anomaly_deg": 83.9245,
      "mean_motion_rev_day": 15.27582647
    },
    {
      "epoch": "2026-04-01T21:36:42.594336Z",
      "apogee_km": 483.85150372969474,
      "perigee_km": 482.05115415218097,
      "latitude_deg": 1.9701509490551795e-05,
      "longitude_deg": 152.31116652360333,
      "height_km": 482.7946327222604,
      "semi_major_axis_km": 6861.088328940938,
      "eccentricity": 0.0001312,
      "inclination_deg": 43.0016,
      "raan_deg": 306.7455,
      "arg_perigee_deg": 265.7625,
      "mean_anomaly_deg": 94.3077,
      "mean_motion_rev_day": 15.27612651
    },
    {
      "epoch": "2026-04-02T21:09:02.974752Z",
      "apogee_km": 483.6407777183904,
      "perigee_km": 482.1382129159156,
      "latitude_deg": -1.0458292641147435e-05,
      "longitude_deg": 152.71900454293615,
      "height_km": 482.6505426251658,
      "semi_major_axis_km": 6861.026495317153,
      "eccentricity": 0.0001095,
      "inclination_deg": 42.9995,
      "raan_deg": 301.205,
      "arg_perigee_deg": 271.1698,
      "mean_anomaly_deg": 88.9028,
      "mean_motion_rev_day": 15.27633302
    },
    {
      "epoch": "2026-04-02T22:43:12.142848Z",
      "apogee_km": 484.20332297782534,
      "perigee_km": 481.4859625883846,
      "latitude_deg": 3.003242484737085e-06,
      "longitude_deg": 128.748873241732,
      "height_km": 482.56054419622444,
      "semi_major_axis_km": 6860.981642783105,
      "eccentricity": 0.00019803,
      "inclination_deg": 43.0025,
      "raan_deg": 300.8375,
      "arg_perigee_deg": 272.5959,
      "mean_anomaly_deg": 87.4666,
      "mean_motion_rev_day": 15.27648282
    },
    {
      "epoch": "2026-04-03T06:33:59.482368Z",
      "apogee_km": 483.39126008421226,
      "perigee_km": 482.6502550463956,
      "latitude_deg": 5.184190693811374e-05,
      "longitude_deg": 8.88273372638841,
      "height_km": 482.7486641061315,
      "semi_major_axis_km": 6861.157757565304,
      "eccentricity": 5.4e-05,
      "inclination_deg": 43.0007,
      "raan_deg": 298.9908,
      "arg_perigee_deg": 277.4603,
      "mean_anomaly_deg": 82.6188,
      "mean_motion_rev_day": 15.27589464
    },
    {
      "epoch": "2026-04-04T12:22:57.686016Z",
      "apogee_km": 483.7942642155813,
      "perigee_km": 482.1207060487686,
      "latitude_deg": 3.454669987353025e-05,
      "longitude_deg": -86.60190695840632,
      "height_km": 482.92262424807967,
      "semi_major_axis_km": 6861.094485132175,
      "eccentricity": 0.00012196,
      "inclination_deg": 43.0009,
      "raan_deg": 291.9732,
      "arg_perigee_deg": 256.9779,
      "mean_anomaly_deg": 103.0937,
      "mean_motion_rev_day": 15.27610595
    },
    {
      "epoch": "2026-04-05T13:29:28.610016Z",
      "apogee_km": 484.20853059533783,
      "perigee_km": 481.9588735515417,
      "latitude_deg": 2.889509487483896e-05,
      "longitude_deg": -110.17043760303993,
      "height_km": 483.0158733102947,
      "semi_major_axis_km": 6861.2207020734395,
      "eccentricity": 0.00016394,
      "inclination_deg": 43.0015,
      "raan_deg": 286.0647,
      "arg_perigee_deg": 262.0721,
      "mean_anomaly_deg": 97.9945,
      "mean_motion_rev_day": 15.27568443
    },
    {
      "epoch": "2026-04-05T19:46:06.374496Z",
      "apogee_km": 484.1814047028902,
      "perigee_km": 481.9295613299655,
      "latitude_deg": 5.482419521039078e-06,
      "longitude_deg": 153.93639129215225,
      "height_km": 482.9002916443006,
      "semi_major_axis_km": 6861.192483016428,
      "eccentricity": 0.0001641,
      "inclination_deg": 43.001,
      "raan_deg": 284.5867,
      "arg_perigee_deg": 266.5471,
      "mean_anomaly_deg": 93.5193,
      "mean_motion_rev_day": 15.27577867
    },
    {
      "epoch": "2026-04-05T21:20:15.741312Z",
      "apogee_km": 484.201398937721,
      "perigee_km": 481.88588769421494,
      "latitude_deg": -3.423966355867587e-05,
      "longitude_deg": 129.96417284648678,
      "height_km": 482.8766640086891,
      "semi_major_axis_km": 6861.180643315968,
      "eccentricity": 0.00016874,
      "inclination_deg": 43.0018,
      "raan_deg": 284.218,
      "arg_perigee_deg": 267.2329,
      "mean_anomaly_deg": 92.8329,
      "mean_motion_rev_day": 15.27581821
    },
    {
      "epoch": "2026-04-07T12:34:10.221888Z",
      "apogee_km": 483.50137817595714,
      "perigee_km": 482.4726212434398,
      "latitude_deg": -4.106910669692024e-06,
      "longitude_deg": -109.35479441768264,
      "height_km": 482.8086363019818,
      "semi_major_axis_km": 6861.123999709698,
      "eccentricity": 7.497e-05,
      "inclination_deg": 43.0014,
      "raan_deg": 274.9872,
      "arg_perigee_deg": 264.9412,
      "mean_anomaly_deg": 95.1354,
      "mean_motion_rev_day": 15.27600738
    },
    {
      "epoch": "2026-04-07T18:50:47.355648Z",
      "apogee_km": 484.0942325847136,
      "perigee_km": 481.8520217951482,
      "latitude_deg": -2.5500324000440125e-05,
      "longitude_deg": 154.75527152668286,
      "height_km": 482.7475720195834,
      "semi_major_axis_km": 6861.110127189931,
      "eccentricity": 0.0001634,
      "inclination_deg": 43.0006,
      "raan_deg": 273.5098,
      "arg_perigee_deg": 270.1285,
      "mean_anomaly_deg": 89.9379,
      "mean_motion_rev_day": 15.27605371
    },
    {
      "epoch": "2026-04-08T12:06:30.851136Z",
      "apogee_km": 483.94099825865214,
      "perigee_km": 482.1949588157131,
      "latitude_deg": 1.9873721809229272e-06,
      "longitude_deg": -108.94646106778781,
      "height_km": 482.88617467862315,
      "semi_major_axis_km": 6861.204978537182,
      "eccentricity": 0.00012724,
      "inclination_deg": 43.0007,
      "raan_deg": 269.4482,
      "arg_perigee_deg": 267.2734,
      "mean_anomaly_deg": 92.7972,
      "mean_motion_rev_day": 15.27573694
    },
    {
      "epoch": "2026-04-08T19:57:17.406144Z",
      "apogee_km": 483.4241615973233,
      "perigee_km": 482.5220628397692,
      "latitude_deg": 1.1325059645539397e-05,
      "longitude_deg": 131.19153401653332,
      "height_km": 482.8405119111217,
      "semi_major_axis_km": 6861.110112218546,
      "eccentricity": 6.574e-05,
      "inclination_deg": 42.9985,
      "raan_deg": 267.6024,
      "arg_perigee_deg": 258.2896,
      "mean_anomaly_deg": 101.7882,
      "mean_motion_rev_day": 15.27605376
    }
  ]
}